{
    "links": {
        "self": "http://www.neowsapp.com/rest/v1/neo/3841959?api_key=iIulBulltgU6a56xZRHN4H3l9WmuAYTsLGpBGhQ2"
    },
    "id": "3841959",
    "neo_reference_id": "3841959",
    "name": "(2019 JC8)",
    "designation": "2019 JC8",
    "nasa_jpl_url": "http://ssd.jpl.nasa.gov/sbdb.cgi?sstr=3841959",
    "absolute_magnitude_h": 22.8,
    "estimated_diameter": {
        "kilometers": {
            "estimated_diameter_min": 0.0732073989,
            "estimated_diameter_max": 0.1636967205
        },
        "meters": {
            "estimated_diameter_min": 73.2073989347,
            "estimated_diameter_max": 163.696720474
        },
        "miles": {
            "estimated_diameter_min": 0.0454889547,
            "estimated_diameter_max": 0.1017163949
        },
        "feet": {
            "estimated_diameter_min": 240.181762721,
            "estimated_diameter_max": 537.0627483999
        }
    },
    "is_potentially_hazardous_asteroid": false,
    "close_approach_data": [
        {
            "close_approach_date": "2019-05-02",
            "close_approach_date_full": "2019-May-02 16:36",
            "epoch_date_close_approach": 1556814960000,
            "relative_velocity": {
                "kilometers_per_second": "20.4738936642",
                "kilometers_per_hour": "73706.0171911409",
                "miles_per_hour": "45798.052737462"
            },
            "miss_distance": {
                "astronomical": "0.069591628",
                "lunar": "27.071143292",
                "kilometers": "10410759.31863236",
                "miles": "6468945.871592168"
            },
            "orbiting_body": "Earth"
        }
    ],
    "orbital_data": {
        "orbit_id": "1",
        "orbit_determination_date": "2019-05-24 10:12:08",
        "first_observation_date": "2019-05-15",
        "last_observation_date": "2019-05-24",
        "data_arc_in_days": 9,
        "observations_used": 35,
        "orbit_uncertainty": "9",
        "minimum_orbit_intersection": ".0183262",
        "jupiter_tisserand_invariant": "3.393",
        "epoch_osculation": "2458622.5",
        "eccentricity": ".7406644445567244",
        "semi_major_axis": "2.038504364336993",
        "inclination": "1.873204754875199",
        "ascending_node_longitude": "79.27364675362618",
        "orbital_period": "1063.079871551953",
        "perihelion_distance": ".5286566615988754",
        "perihelion_argument": "49.36285280586294",
        "aphelion_distance": "3.54835206707511",
        "perihelion_time": "2458558.959995021167",
        "mean_anomaly": "21.51710553882122",
        "mean_motion": ".3386387134528741",
        "equinox": "J2000",
        "orbit_class": {
            "orbit_class_type": "APO",
            "orbit_class_description": "Near-Earth asteroid orbits which cross the Earth’s orbit similar to that of 1862 Apollo",
            "orbit_class_range": "a (semi-major axis) > 1.0 AU; q (perihelion) < 1.017 AU"
        }
    },
    "is_sentry_object": false
}